ONEWEB-0492             
1 54114U 22138B   25085.61331549 -.00000258  00000+0 -67791-3 0  9992
2 54114  87.9231  33.9278 0001878  73.9555 286.1785 13.19726346117803
ONEWEB-0495             
1 54115U 22138C   25085.81867121 -.00000109  00000+0 -30519-3 0  9998
2 54115  87.9232  33.8983 0002527  68.6815 291.4587 13.19724240117810
ONEWEB-0497             
1 54116U 22138D   25085.83130759 -.00000121  00000+0 -33551-3 0  9994
2 54116  87.9228  33.8717 0002015  77.3734 282.7624 13.19725385117805
ONEWEB-0499             
1 54117U 22138E   25085.58648242  .00000092  00000+0  19830-3 0  9997
2 54117  87.9235  33.9342 0002305  85.2150 274.9246 13.19726817117782
ONEWEB-0500             
1 54118U 22138F   25085.81708957 -.00000092  00000+0 -26265-3 0  9996
2 54118  87.9229  33.8757 0001920  79.3708 280.7641 13.19726289117822
ONEWEB-0501             
1 54119U 22138G   25085.54382153  .00000061  00000+0  12016-3 0  9996
2 54119  87.9227  33.9246 0002337  74.0049 286.1341 13.19728638117768
ONEWEB-0502             
1 54120U 22138H   25085.60542113 -.00000250  00000+0 -65615-3 0  9994
2 54120  87.9226  33.8979 0002235  78.9933 281.1451 13.19724716117796
ONEWEB-0503             
1 54121U 22138J   25085.59436615  .00000010  00000+0 -74603-5 0  9994
2 54121  87.9225  33.9053 0002084  89.2080 270.9292 13.19728089117785
